[{"OBJECT_NAME":"STARLINK-2285","OBJECT_ID":"2021-024AU","EPOCH":"2026-03-09T21:28:20.577504","MEAN_MOTION":15.30182651,"ECCENTRICITY":9.243e-5,"INCLINATION":53.1579,"RA_OF_ASC_NODE":305.9113,"ARG_OF_PERICENTER":99.8107,"MEAN_ANOMALY":260.2998,"EPHEMERIS_TYPE":0,"CLASSIFICATION_TYPE":"U","NORAD_CAT_ID":48019,"ELEMENT_SET_NO":999,"REV_AT_EPOCH":27495,"BSTAR":-7.2180295e-5,"MEAN_MOTION_DOT":-2.495e-5,"MEAN_MOTION_DDOT":0},{"OBJECT_NAME":"JILIN-1 GAOFEN 03D47","OBJECT_ID":"2022-167L","EPOCH":"2026-03-09T22:56:46.924224","MEAN_MOTION":15.31686941,"ECCENTRICITY":0.00089304,"INCLINATION":97.6835,"RA_OF_ASC_NODE":234.6581,"ARG_OF_PERICENTER":110.4031,"MEAN_ANOMALY":249.8169,"EPHEMERIS_TYPE":0,"CLASSIFICATION_TYPE":"U","NORAD_CAT_ID":54692,"ELEMENT_SET_NO":999,"REV_AT_EPOCH":18014,"BSTAR":0.00047294748,"MEAN_MOTION_DOT":0.00014417,"MEAN_MOTION_DDOT":0}]
